# From MPC106342
C/1995 O1 (Hale-Bopp),e,89.0690,283.1930,130.4903,178.3301,0.0004139,0.99495576,0.0000,03/29.7455/1997,2000,g -2.0,4.0
# From NK 1615
P/1996 R2 (Lagerkvist),e,2.6005,40.0211,333.3253,3.774989,0.1343787,0.31422330,117.3318,07/04.0/2021,2000,g 11.5,4.0
# From MPC 30063
P/1997 B1 (Kobayashi),e,12.3395,328.8817,183.3365,8.575192,0.0392499,0.76024353,349.4907,07/04.0/2021,2000,g 15.0,2.0
# From MPC 75703
P/1998 VS24 (LINEAR),e,5.0261,159.0352,244.6242,4.528240,0.1022845,0.24230309,129.1659,07/04.0/2021,2000,g 13.0,2.0
# From NK 731
P/1999 RO28 (LONEOS),e,7.5673,137.8856,231.2642,3.426707,0.1553776,0.67223673,114.7832,07/04.0/2021,2000,g 20.0,2.0
# From MPC 75704
P/1999 XN120 (Catalina),e,5.0296,285.2964,161.8284,4.179057,0.1153683,0.21021949,171.3588,07/04.0/2021,2000,g 13.5,2.0
# From NK 744
P/2000 R2 (LINEAR),e,11.6862,160.2878,176.5407,3.466677,0.1526983,0.53160818,114.1376,07/04.0/2021,2000,g 18.0,4.0
# From MPC 43019
P/2001 H5 (NEAT),e,8.3668,328.6832,224.8461,6.097712,0.0654566,0.59841685,136.5337,07/04.0/2021,2000,g 12.0,4.0
# From MPC 75704
P/2001 Q6 (NEAT),e,56.9084,22.1564,42.9313,7.953569,0.0439401,0.82297543,317.3871,07/04.0/2021,2000,g 13.5,4.0
# From MPC 47727
P/2002 EJ57 (LINEAR),e,4.9762,330.3257,167.3579,6.470444,0.0598829,0.59241804,66.5906,07/04.0/2021,2000,g 12.5,4.0
# From MPC109588
P/2002 T6 (NEAT-LINEAR),e,10.8371,206.2705,219.6634,7.684692,0.0462663,0.56070232,308.4469,07/04.0/2021,2000,g 10.5,4.0
# From MPC 75007
C/2002 VQ94 (LINEAR),e,70.6100,35.0557,100.1219,185.0816,0.0003914,0.96309951,2.2064,07/04.0/2021,2000,g  9.5,2.0
# From MPC 50354
P/2003 F2 (NEAT),e,11.6059,359.0330,192.0982,6.499266,0.0594850,0.54229700,35.6508,07/04.0/2021,2000,g 16.5,2.0
# From MPC 50139
P/2003 QX29 (NEAT),e,11.3901,264.5677,37.4942,8.027393,0.0433353,0.47298784,295.2847,07/04.0/2021,2000,g  8.5,4.0
# From MPC105235
P/2003 T12 (SOHO),e,11.0194,174.5766,219.7563,2.585964,0.2370120,0.76976079,100.2799,07/04.0/2021,2000,g 17.0,4.0
# From MPC 82312
P/2004 A1 (LONEOS),e,10.5516,124.8479,21.2993,7.960934,0.0438791,0.30933595,271.0381,07/04.0/2021,2000,g  6.5,4.0
# From MPC 54558
P/2004 DO29 (Spacewatch-LINEAR),e,14.5323,147.3730,40.6683,7.285725,0.0501181,0.44115020,306.5450,07/04.0/2021,2000,g 13.5,2.0
# From MPC 54823
P/2004 FY140 (LINEAR),e,2.1348,326.7620,242.3923,4.903326,0.0907753,0.16825079,197.2549,07/04.0/2021,2000,g 12.5,2.0
# From MPC 53304
P/2004 R3 (LINEAR-NEAT),e,12.8042,305.4610,38.0267,4.791874,0.0939606,0.25977503,352.3347,07/04.0/2021,2000,g 14.5,4.0
# From MPC 55521
P/2004 V3 (Siding Spring),e,50.4403,356.1238,322.3553,7.140438,0.0516555,0.44632859,314.9972,07/04.0/2021,2000,g 11.5,4.0
# From MPC 75705
P/2004 V5 (LINEAR-Hill),e,19.3420,47.7838,87.7016,7.979811,0.0437235,0.44363064,262.2200,07/04.0/2021,2000,g  8.0,4.0
# From MPC 54164
P/2005 E1 (Tubbiolo),e,4.2638,335.5678,194.0532,7.040729,0.0527567,0.37514384,316.8687,07/04.0/2021,2000,g 10.0,4.0
# From MPC 54823
P/2005 GF8 (LONEOS),e,1.1904,314.7705,284.7347,5.832647,0.0699690,0.51744353,45.1193,07/04.0/2021,2000,g 11.5,4.0
# From MPC 79019
P/2005 J1 (McNaught),e,31.7606,268.8122,338.9617,3.570470,0.1460885,0.56960285,145.4335,07/04.0/2021,2000,g 16.5,4.0
# From MPC 74246
P/2005 L1 (McNaught),e,7.7386,138.2478,149.7257,3.975885,0.1243235,0.20957208,344.8658,07/04.0/2021,2000,g  9.5,4.0
# From MPC 75706
P/2005 S2 (Skiff),e,3.1357,161.2098,229.1669,8.014582,0.0434393,0.19745586,240.4059,07/04.0/2021,2000,g  7.5,4.0
# From MPC 75706
P/2005 SB216 (LONEOS),e,24.0871,1.1871,83.3568,7.132193,0.0517451,0.46372916,274.1398,07/04.0/2021,2000,g 12.0,2.0
# From MPC 55717
P/2005 T2 (Christensen),e,8.2920,260.1599,58.8393,3.846692,0.1306390,0.41637086,58.9938,07/04.0/2021,2000,g 14.5,4.0
# From MPC 73461
P/2005 T3 (Read),e,6.2238,27.7143,6.8092,7.582767,0.0472022,0.17444635,271.6544,07/04.0/2021,2000,g  9.0,4.0
# From MPC 73461
P/2005 T4 (SWAN),e,160.2143,25.7610,41.6659,9.361257,0.0344114,0.92976250,198.0577,07/04.0/2021,2000,g 15.0,4.0
# From MPC 75706
P/2005 T5 (Broughton),e,21.3614,57.0019,304.5700,7.289205,0.0500822,0.55233290,287.8180,07/04.0/2021,2000,g 11.0,4.0
# From MPC 56954
P/2005 W3 (Kowalski),e,16.4204,210.0853,200.7280,6.328628,0.0619070,0.54334424,355.1159,07/04.0/2021,2000,g 12.0,4.0
# From MPC 75706
P/2005 Y2 (McNaught),e,19.0576,94.4078,193.8978,6.380025,0.0611604,0.47041319,15.7444,07/04.0/2021,2000,g  9.0,4.0
# From MPC 56954
P/2006 F4 (Spacewatch),e,12.4248,183.8287,30.9514,3.521620,0.1491387,0.34017512,104.6297,07/04.0/2021,2000,g 15.0,4.0
# From MPC 75707
P/2006 HR30 (Siding Spring),e,31.8311,309.8993,117.2927,7.811137,0.0451474,0.84233111,240.0662,07/04.0/2021,2000,g 11.0,4.0
# From MPEC 2021-M34
P/2006 S4 (Christensen),e,39.5316,36.0765,305.1405,6.316594,0.0620840,0.50840805,347.9632,07/04.0/2021,2000,g 11.0,4.0
# From MPC 75707
P/2007 A2 (Christensen),e,26.4877,300.9077,186.7311,6.328451,0.0619096,0.55778423,328.2266,07/04.0/2021,2000,g 13.5,4.0
# From MPC 75707
P/2007 C2 (Catalina),e,8.6347,275.5056,180.0449,6.992259,0.0533062,0.47093182,267.9924,07/04.0/2021,2000,g 10.0,4.0
# From MPC 84315
C/2007 D1 (LINEAR),e,41.5017,171.2108,340.0088,1399,0.0000188,0.99369591,0.0000,06/08.3402/2007,2000,g  3.5,4.0
# From MPC 82314
P/2007 K2 (Gibbs),e,7.6319,188.6419,347.4355,7.266015,0.0503222,0.68307727,259.0313,07/04.0/2021,2000,g 14.0,4.0
# From MPC 60925
P/2007 Q2 (Gilmore),e,10.2027,172.1597,162.7795,5.652587,0.0733387,0.67010707,16.0632,07/04.0/2021,2000,g 16.0,4.0
# From MPC 75708
P/2007 R4 (Garradd),e,20.2124,87.2100,282.5884,5.935643,0.0681557,0.67022758,349.2504,07/04.0/2021,2000,g 14.5,4.0
# From MPC 73462
P/2007 S1 (Zhao),e,5.9640,141.3708,245.5833,3.816772,0.1321781,0.33958557,299.0518,07/04.0/2021,2000,g 13.0,4.0
# From MPC 61994
P/2007 T2 (Kowalski),e,9.7490,3.3748,359.6397,3.046856,0.1853217,0.78542519,199.4075,07/04.0/2021,2000,g 18.5,4.0
# From MPEC 2021-N06
P/2008 CL94 (Lemmon),e,8.3464,33.3195,80.4484,6.162958,0.0644199,0.12039299,354.9384,07/04.0/2021,2000,g 10.0,4.0
# From MPC 75709
P/2008 L2 (Hill),e,25.8628,218.0092,141.2266,6.028356,0.0665895,0.61322175,314.9788,07/04.0/2021,2000,g 12.5,4.0
# From MPC 64114
P/2008 O3 (Boattini),e,32.2756,47.5851,341.1036,8.220904,0.0418143,0.69553175,200.2175,07/04.0/2021,2000,g 13.0,4.0
# From MPC 75709
P/2008 QP20 (LINEAR-Hill),e,7.5225,322.0725,75.5308,3.553434,0.1471403,0.49171546,333.1996,07/04.0/2021,2000,g 15.5,4.0
# From MPC 66204
P/2008 WZ96 (LINEAR),e,7.1117,56.4463,341.9321,3.486992,0.1513658,0.46982269,351.8587,07/04.0/2021,2000,g 13.5,4.0
# From MPC 75710
P/2008 Y3 (McNaught),e,38.7674,262.8050,238.1974,8.046991,0.0431771,0.44545550,197.6265,07/04.0/2021,2000,g  8.5,4.0
# From MPC 75710
P/2009 B1 (Boattini),e,22.2208,297.0891,128.8770,6.737090,0.0563632,0.63489092,257.1754,07/04.0/2021,2000,g 13.0,4.0
# From MPC 66466
C/2009 G1 (STEREO),e,108.7228,120.4462,175.4286,439.4346,0.0001070,0.99741239,0.0000,04/16.0443/2009,2000,g  9.0,4.0
# From MPC 75710
P/2009 O3 (Hill),e,16.2753,183.7007,154.4245,7.769057,0.0455147,0.68778343,201.3990,07/04.0/2021,2000,g 12.5,4.0
# From MPC 68902
P/2009 Q5 (McNaught),e,40.9849,160.2753,209.0311,7.435636,0.0486101,0.60911850,209.9716,07/04.0/2021,2000,g 10.0,4.0
# From MPC112389
P/2009 T2 (La Sagra),e,27.5665,215.8255,216.3800,7.723004,0.0459224,0.76542565,193.1857,07/04.0/2021,2000,g 14.0,4.0
# From MPC105235
P/2009 WX51 (Catalina),e,9.5945,31.6719,118.1013,3.081164,0.1822350,0.74025691,41.8490,07/04.0/2021,2000,g 19.0,2.0
# From MPC 74247
P/2009 Y2 (Kowalski),e,29.9350,262.0261,172.1446,6.550011,0.0587951,0.63606809,243.6368,07/04.0/2021,2000,g 13.0,4.0
# From MPC 75711
P/2010 A3 (Hill),e,14.8371,63.8714,42.1193,6.078483,0.0657675,0.73348688,271.3590,07/04.0/2021,2000,g 14.0,4.0
# From MPC 75008
P/2010 C1 (Scotti),e,9.1281,141.8861,3.6605,7.103575,0.0520581,0.25885787,221.3585,07/04.0/2021,2000,g  9.5,4.0
# From MPC 75008
P/2010 D2 (WISE),e,57.0858,319.8909,120.0335,6.717241,0.0566132,0.45101094,235.4843,07/04.0/2021,2000,g 16.0,4.0
# From MPC 75009
P/2010 E2 (Jarnac),e,15.3950,177.8232,8.3590,8.639194,0.0388145,0.71984982,159.6181,07/04.0/2021,2000,g 14.0,4.0
# From MPC 72851
P/2010 H2 (Vales),e,14.2744,64.1967,128.1103,3.833489,0.1313145,0.19589476,183.1075,07/04.0/2021,2000,g  6.0,4.0
# From MPC 70361
P/2010 H3 (SOHO),e,23.0785,77.0958,26.1471,3.037721,0.1861583,0.98537467,0.0000,02/07.9620/2021,2000,g 20.0,2.0
# From MPC 73463
P/2010 H4 (Scotti),e,2.3184,44.7392,179.5247,6.592344,0.0582297,0.26706050,234.9284,07/04.0/2021,2000,g 10.5,4.0
# From MPC 74637
P/2010 H5 (Scotti),e,14.0627,24.8043,175.1644,7.162588,0.0514161,0.15314149,211.2732,07/04.0/2021,2000,g 13.0,2.0
# From MPC 98558
P/2010 J3 (McMillan),e,13.2851,106.4205,157.5983,8.973366,0.0366666,0.72682275,145.2545,07/04.0/2021,2000,g 11.0,4.0
# From MPC 84315
P/2010 JC81 (WISE),e,38.7562,30.8500,12.4291,8.109335,0.0426802,0.77707614,159.1034,07/04.0/2021,2000,g  9.0,4.0
# From MPC 74248
P/2010 T2 (PANSTARRS),e,7.8962,58.8610,353.3374,5.531331,0.0757634,0.32157524,284.8100,07/04.0/2021,2000,g 11.5,4.0
# From MPC 98558
P/2010 TO20 (LINEAR-Grauer),e,2.4789,43.2929,266.8497,5.830940,0.0699997,0.05506964,324.6943,07/04.0/2021,2000,g  9.0,4.0
# From MPC 82316
P/2010 U1 (Boattini),e,8.2152,280.7069,85.9757,6.509233,0.0593484,0.24847749,247.9007,07/04.0/2021,2000,g  9.5,4.0
# From MPC xxxxx
C/2010 U3 (Boattini),e,55.5298,43.0195,88.0603,2270,0.0000091,0.99628035,0.0000,02/25.5578/2019,2000,g  1.0,4.0
# From MPC 79021
P/2010 UH55 (Spacewatch),e,8.0412,232.9441,225.1730,6.652918,0.0574362,0.56336171,214.6952,07/04.0/2021,2000,g 11.0,4.0
# From MPC 75009
P/2010 WK (LINEAR),e,11.4011,11.3243,40.9700,5.761501,0.0712690,0.68999242,280.6065,07/04.0/2021,2000,g 14.5,2.0
# From MPC 82317
P/2011 A2 (Scotti),e,4.4749,54.6764,94.5126,3.106069,0.1800477,0.49949895,332.8777,07/04.0/2021,2000,g 16.5,4.0
# From MPC 84021
P/2011 C2 (Gibbs),e,10.8850,12.1242,160.8845,7.413747,0.0488256,0.26889133,169.6411,07/04.0/2021,2000,g  9.0,4.0
# From MPC 79866
